GLOBALSTAR M001         
1 25162U 98008A   24187.57276441 -.00000077  00000+0  14770-3 0  9995
2 25162  52.0028 262.0575 0001730 223.4172 228.3580 12.38187494200775
GLOBALSTAR M004         
1 25163U 98008B   24187.34127071 -.00000030  00000+0  40478-3 0  9998
2 25163  52.0014  32.2716 0002191 233.1760 297.9860 12.63364315217844
GLOBALSTAR M002         
1 25164U 98008C   24187.26697825 -.00000063  00000+0  25949-3 0  9991
2 25164  52.0034  30.0435 0000616 201.8938 158.1855 11.61502820143752
GLOBALSTAR M003         
1 25165U 98008D   24187.58972527  .00000056  00000+0  15543-2 0  9991
2 25165  51.9903  48.4554 0007578 320.3798  74.7693 12.12016219191199
GLOBALSTAR M014         
1 25306U 98023A   24187.62440831 -.00000064  00000+0  24592-3 0  9993
2 25306  51.9859 319.6595 0001510  99.7169 273.3562 11.65469379150769
GLOBALSTAR M006         
1 25307U 98023B   24187.52821990 -.00000093  00000+0 -36020-3 0  9994
2 25307  51.9961 359.4189 0003729 187.8243 244.3907 11.58163109176663
GLOBALSTAR M015         
1 25308U 98023C   24187.44522792 -.00000140  00000+0 -15060-2 0  9997
2 25308  51.9829  82.2032 0012096 178.1476 353.1292 11.48851585154228
GLOBALSTAR M008         
1 25309U 98023D   24187.59423875 -.00000105  00000+0 -73651-4 0  9999
2 25309  51.9960 122.8955 0002221 157.1675  14.1333 12.36044955194987
